SENTINEL-2A             
1 40697U 15028A   26191.29160774 -.00000155  00000+0 -42409-4 0  9992
2 40697  98.5675 265.8147 0001247  95.2267 264.9058 14.30813040577036
SENTINEL-2B             
1 42063U 17013A   26191.28442122 -.00000171  00000+0 -48507-4 0  9999
2 42063  98.5683 265.7324 0001207  91.0331 269.0991 14.30813652487943
SENTINEL-2C             
1 60989U 24157A   26191.10961240  .00000041  00000+0  32184-4 0  9999
2 60989  98.5685 265.5666 0000946  98.1407 261.9883 14.30814768 96261
