{"fetched_at":"2026-07-10T18:08:30.667Z","source":"https://celestrak.org/NORAD/elements/gp.php?NAME=SENTINEL&FORMAT=JSON","constellation":"sentinel-2","records":[{"OBJECT_NAME":"SENTINEL-2A","OBJECT_ID":"2015-028A","EPOCH":"2026-07-10T06:59:54.908736","CLASSIFICATION_TYPE":"U","MEAN_MOTION":14.3081304,"ECCENTRICITY":0.00012476,"INCLINATION":98.5675,"RA_OF_ASC_NODE":265.8147,"ARG_OF_PERICENTER":95.2267,"MEAN_ANOMALY":264.9058,"EPHEMERIS_TYPE":0,"NORAD_CAT_ID":40697,"ELEMENT_SET_NO":999,"REV_AT_EPOCH":57703,"BSTAR":-0.000042408792,"MEAN_MOTION_DOT":-0.00000155,"MEAN_MOTION_DDOT":0},{"OBJECT_NAME":"SENTINEL-2B","OBJECT_ID":"2017-013A","EPOCH":"2026-07-10T06:49:33.993408","CLASSIFICATION_TYPE":"U","MEAN_MOTION":14.30813652,"ECCENTRICITY":0.00012074,"INCLINATION":98.5683,"RA_OF_ASC_NODE":265.7324,"ARG_OF_PERICENTER":91.0331,"MEAN_ANOMALY":269.0991,"EPHEMERIS_TYPE":0,"NORAD_CAT_ID":42063,"ELEMENT_SET_NO":999,"REV_AT_EPOCH":48794,"BSTAR":-0.00004850654,"MEAN_MOTION_DOT":-0.00000171,"MEAN_MOTION_DDOT":0},{"OBJECT_NAME":"SENTINEL-2C","OBJECT_ID":"2024-157A","EPOCH":"2026-07-10T02:37:50.511360","CLASSIFICATION_TYPE":"U","MEAN_MOTION":14.30814768,"ECCENTRICITY":0.00009466,"INCLINATION":98.5685,"RA_OF_ASC_NODE":265.5666,"ARG_OF_PERICENTER":98.1407,"MEAN_ANOMALY":261.9883,"EPHEMERIS_TYPE":0,"NORAD_CAT_ID":60989,"ELEMENT_SET_NO":999,"REV_AT_EPOCH":9626,"BSTAR":0.000032183953,"MEAN_MOTION_DOT":4.1e-7,"MEAN_MOTION_DDOT":0}]}
